{"type": "FeatureCollection", "features": [ {"type": "Feature", "properties": {"norad_id": 62339, "name": "GPS BIII-7  (PRN 01)", "group": "gps-ops", "lat": 27.74251109970465, "lon": 3.0657234670659226, "alt_km": 20156.66278397843, "timestamp": "2025-12-21T09:37:22.913682+00:00", "meta": {"OBJECT_NAME": "GPS BIII-7  (PRN 01)", "OBJECT_ID": "2024-242A", "EPOCH": "2025-12-18T08:46:28.895808", "MEAN_MOTION": 2.00568182, "ECCENTRICITY": 0.0012509, "INCLINATION": 54.922, "RA_OF_ASC_NODE": 341.5124, "ARG_OF_PERICENTER": 345.6877, "MEAN_ANOMALY": 17.1618, "EPHEMERIS_TYPE": 0, "CLASSIFICATION_TYPE": "U", "NORAD_CAT_ID": 62339, "ELEMENT_SET_NO": 999, "REV_AT_EPOCH": 763, "BSTAR": 0, "MEAN_MOTION_DOT": -8.5e-07, "MEAN_MOTION_DDOT": 0}, "tle": {"line1": "1 62339U 24242A   25352.36561222 -.00000085  00000+0  00000+0 0  9993", "line2": "2 62339  54.9220 341.5124 0012509 345.6877  17.1618  2.00568182  7636"}}, "geometry": {"type": "Point", "coordinates": [3.0657234670659226, 27.74251109970465]}}, {"type": "Feature", "properties": {"norad_id": 64202, "name": "GPS BIII-8  (PRN 21)", "group": "gps-ops", "lat": -34.49518685255775, "lon": -113.05645756842871, "alt_km": 20185.897823783554, "timestamp": "2025-12-21T09:37:22.913695+00:00", "meta": {"OBJECT_NAME": "GPS BIII-8  (PRN 21)", "OBJECT_ID": "2025-116A", "EPOCH": "2025-12-20T02:23:29.620896", "MEAN_MOTION": 2.00557984, "ECCENTRICITY": 0.00057225, "INCLINATION": 55.1107, "RA_OF_ASC_NODE": 38.344, "ARG_OF_PERICENTER": 309.6695, "MEAN_ANOMALY": 54.4969, "EPHEMERIS_TYPE": 0, "CLASSIFICATION_TYPE": "U", "NORAD_CAT_ID": 64202, "ELEMENT_SET_NO": 999, "REV_AT_EPOCH": 428, "BSTAR": 0, "MEAN_MOTION_DOT": -6.1e-07, "MEAN_MOTION_DDOT": 0}, "tle": {"line1": "1 64202U 25116A   25354.09964839 -.00000061  00000+0  00000+0 0  9992", "line2": "2 64202  55.1107  38.3440 0005722 309.6695  54.4969  2.00557984  4282"}}, "geometry": {"type": "Point", "coordinates": [-113.05645756842871, -34.49518685255775]}}]}